NORAD_CAT_ID,OBJECT_NAME,OBJECT_TYPE,EPOCH,MEAN_MOTION,ECCENTRICITY,INCLINATION,RA_OF_ASC_NODE,ARG_OF_PERICENTER,MEAN_ANOMALY,BSTAR,MEAN_MOTION_DOT,MEAN_MOTION_DDOT,TLE_LINE0,TLE_LINE1,TLE_LINE2,SEMIMAJOR_AXIS,PERIOD,APOGEE,PERIGEE,DECAYED
54187.0,STARLINK-5240,PAYLOAD,2024-03-10 08:13:49,15.08848388,0.0001528,53.2181,38.1096,98.5377,261.5788,0.00015855,2.237e-05,0.0,0 STARLINK-5240,1 54187U 22141AG  24070.34293361  .00002237  00000-0  15855-3 0  9990,2 54187  53.2181  38.1096 0001528  98.5377 261.5788 15.08848388 75988,6917.855,95.437,540.777,538.663,0.0
54187.0,STARLINK-5240,PAYLOAD,2024-03-10 14:35:22,15.08842116,0.0001207,53.2167,36.9166,80.1844,279.9284,0.00012434,1.692e-05,0.0,0 STARLINK-5240,1 54187U 22141AG  24070.60789591  .00001692  00000-0  12434-3 0  9998,2 54187  53.2167  36.9166 0001207  80.1844 279.9284 15.08842116 75792,6917.874,95.437,540.574,538.904,0.0
54187.0,STARLINK-5240,PAYLOAD,2024-03-11 04:53:51,15.08834856,0.0001651,53.2179,34.2428,84.9462,275.1718,-9.0733e-06,-4.32e-06,0.0,0 STARLINK-5240,1 54187U 22141AG  24071.20406261 -.00000432  00000-0 -90733-5 0  9998,2 54187  53.2179  34.2428 0001651  84.9462 275.1718 15.08834856 76117,6917.896,95.438,540.903,538.619,0.0
54187.0,STARLINK-5240,PAYLOAD,2024-03-11 14:26:09,15.08837561,0.0001447,53.2182,32.4587,91.3386,268.7772,3.3538e-05,2.46e-06,0.0,0 STARLINK-5240,1 54187U 22141AG  24071.60150131  .00000246  00000-0  33538-4 0  9994,2 54187  53.2182  32.4587 0001447  91.3386 268.7772 15.08837561 75941,6917.888,95.438,540.754,538.752,0.0
54187.0,STARLINK-5240,PAYLOAD,2024-03-12 04:44:37,15.0884533,0.0001372,53.2176,29.781,87.4865,272.6284,9.4617e-05,1.218e-05,0.0,0 STARLINK-5240,1 54187U 22141AG  24072.19765792  .00001218  00000-0  94617-4 0  9999,2 54187  53.2176  29.7810 0001372  87.4865 272.6284 15.08845330 76268,6917.864,95.437,540.678,538.78,0.0
54187.0,STARLINK-5240,PAYLOAD,2024-03-12 14:16:56,15.08846311,0.0001463,53.2184,27.9959,87.3872,272.7287,1.2487e-05,-8.9e-07,0.0,0 STARLINK-5240,1 54187U 22141AG  24072.59509717 -.00000089  00000-0  12487-4 0  9997,2 54187  53.2184  27.9959 0001463  87.3872 272.7287 15.08846311 76094,6917.861,95.437,540.738,538.714,0.0
54187.0,STARLINK-5240,PAYLOAD,2024-03-13 06:10:47,15.0884998,0.0001394,53.2178,25.0224,88.9523,271.1629,0.0002062,2.996e-05,0.0,0 STARLINK-5240,1 54187U 22141AG  24073.25749568  .00002996  00000-0  20620-3 0  9996,2 54187  53.2178  25.0224 0001394  88.9523 271.1629 15.08849980 76429,6917.85,95.437,540.679,538.751,0.0
54187.0,STARLINK-5240,PAYLOAD,2024-03-13 14:07:43,15.08845302,0.0001338,53.2177,23.5357,108.8168,251.2969,0.0001394,1.932e-05,0.0,0 STARLINK-5240,1 54187U 22141AG  24073.58869747  .00001932  00000-0  13940-3 0  9990,2 54187  53.2177  23.5357 0001338 108.8168 251.2969 15.08845302 76243,6917.864,95.437,540.655,538.804,0.0
54187.0,STARLINK-5240,PAYLOAD,2024-03-13 20:29:16,15.08844045,0.0001321,53.2188,22.346,100.1148,259.9993,9.667e-05,1.251e-05,0.0,0 STARLINK-5240,1 54187U 22141AG  24073.85365795  .00001251  00000-0  96670-4 0  9990,2 54187  53.2188  22.3460 0001321 100.1148 259.9993 15.08844045 76517,6917.868,95.437,540.647,538.819,0.0
54187.0,STARLINK-5240,PAYLOAD,2024-03-14 02:50:47,15.08860523,0.0001723,53.2187,21.1596,89.7999,270.3191,0.00029421,4.4e-05,0.0,0 STARLINK-5240,1 54187U 22141AG  24074.11860919  .00004400  00000-0  29421-3 0  9996,2 54187  53.2187  21.1596 0001723  89.7999 270.3191 15.08860523 76555,6917.818,95.436,540.875,538.491,0.0
54187.0,STARLINK-5240,PAYLOAD,2024-03-14 06:01:33,15.08862775,0.0001644,53.2187,20.5586,93.8152,266.3029,0.00027645,4.117e-05,0.0,0 STARLINK-5240,1 54187U 22141AG  24074.25108548  .00004117  00000-0  27645-3 0  9995,2 54187  53.2187  20.5586 0001644  93.8152 266.3029 15.08862775 76349,6917.811,95.436,540.813,538.538,0.0
54187.0,STARLINK-5240,PAYLOAD,2024-03-14 20:20:03,15.08834085,0.0001468,53.2174,17.8841,104.0068,256.1087,-0.00010813,-2.008e-05,0.0,0 STARLINK-5240,1 54187U 22141AG  24074.84725765 -.00002008  00000-0 -10813-3 0  9994,2 54187  53.2174  17.8841 0001468 104.0068 256.1087 15.08834085 76662,6917.898,95.438,540.779,538.748,0.0
54187.0,STARLINK-5240,PAYLOAD,2024-03-15 20:10:50,15.08841138,0.0001483,53.2176,13.4266,78.883,281.2329,9.5617e-05,1.234e-05,0.0,0 STARLINK-5240,1 54187U 22141AG  24075.84086082  .00001234  00000-0  95617-4 0  9991,2 54187  53.2176  13.4266 0001483  78.8830 281.2329 15.08841138 76585,6917.877,95.437,540.768,538.716,0.0
54187.0,STARLINK-5240,PAYLOAD,2024-03-16 02:32:22,15.0884904,0.0001528,53.2185,12.2379,87.2101,272.9066,0.00071407,0.00011097,0.0,0 STARLINK-5240,1 54187U 22141AG  24076.10582079  .00011097  00000-0  71407-3 0  9996,2 54187  53.2185  12.2379 0001528  87.2101 272.9066 15.08849040 76857,6917.853,95.437,540.775,538.661,0.0
54187.0,STARLINK-5240,PAYLOAD,2024-03-16 05:43:09,15.08852105,0.0001515,53.2183,11.6419,80.9199,279.1965,0.00070994,0.00011032,0.0,0 STARLINK-5240,1 54187U 22141AG  24076.23829962  .00011032  00000-0  70994-3 0  9994,2 54187  53.2183  11.6419 0001515  80.9199 279.1965 15.08852105 76646,6917.843,95.437,540.756,538.66,0.0
54187.0,STARLINK-5240,PAYLOAD,2024-03-16 20:01:37,15.08837417,0.0001329,53.217,8.96,112.2112,247.9021,0.00010616,1.402e-05,0.0,0 STARLINK-5240,1 54187U 22141AG  24076.83446246  .00001402  00000-0  10616-3 0  9995,2 54187  53.2170   8.9600 0001329 112.2112 247.9021 15.08837417 76960,6917.888,95.438,540.673,538.834,0.0
54187.0,STARLINK-5240,PAYLOAD,2024-03-17 05:33:56,15.08848894,0.0001494,53.2184,7.1827,100.4105,259.7055,0.00034501,5.208e-05,0.0,0 STARLINK-5240,1 54187U 22141AG  24077.23190081  .00005208  00000-0  34501-3 0  9990,2 54187  53.2184   7.1827 0001494 100.4105 259.7055 15.08848894 77028,6917.853,95.437,540.752,538.685,0.0
54187.0,STARLINK-5240,PAYLOAD,2024-03-18 00:38:33,15.08841885,0.0001642,53.2184,3.6125,111.9792,248.1375,0.00010384,1.365e-05,0.0,0 STARLINK-5240,1 54187U 22141AG  24078.02678222  .00001365  00000-0  10384-3 0  9999,2 54187  53.2184   3.6125 0001642 111.9792 248.1375 15.08841885 77147,6917.875,95.437,540.876,538.604,0.0
54187.0,STARLINK-5240,PAYLOAD,2024-03-18 05:24:43,15.08843893,0.000165,53.2184,2.7202,112.6575,247.4592,0.00010626,1.404e-05,0.0,0 STARLINK-5240,1 54187U 22141AG  24078.22550115  .00001404  00000-0  10626-3 0  9994,2 54187  53.2184   2.7202 0001650 112.6575 247.4592 15.08843893 76940,6917.868,95.437,540.875,538.592,0.0
54187.0,STARLINK-5240,PAYLOAD,2024-03-19 03:40:07,15.08846947,0.000144,53.2182,358.5548,90.1167,269.9991,0.00027666,4.119e-05,0.0,0 STARLINK-5240,1 54187U 22141AG  24079.15286255  .00004119  00000-0  27666-3 0  9996,2 54187  53.2182 358.5548 0001440  90.1167 269.9991 15.08846947 77314,6917.859,95.437,540.72,538.728,0.0
54187.0,STARLINK-5240,PAYLOAD,2024-03-20 01:55:30,15.08859933,0.0001597,53.2191,354.3954,80.6853,279.432,0.00039164,5.954e-05,0.0,0 STARLINK-5240,1 54187U 22141AG  24080.08021395  .00005954  00000-0  39164-3 0  9996,2 54187  53.2191 354.3954 0001597  80.6853 279.4320 15.08859933 77229,6917.819,95.436,540.789,538.58,0.0
54187.0,STARLINK-5240,PAYLOAD,2024-03-20 22:35:32,15.08832919,0.0001476,53.2194,350.53,83.0763,277.0397,-8.304e-05,-1.609e-05,0.0,0 STARLINK-5240,1 54187U 22141AG  24080.94134698 -.00001609  00000-0 -83040-4 0  9990,2 54187  53.2194 350.5300 0001476  83.0763 277.0397 15.08832919 77355,6917.902,95.438,540.788,538.746,0.0
54187.0,STARLINK-5240,PAYLOAD,2024-03-21 00:10:55,15.08832994,0.0001589,53.2195,350.2317,88.8636,271.2538,-6.6587e-05,-1.347e-05,0.0,0 STARLINK-5240,1 54187U 22141AG  24081.00758715 -.00001347  00000-0 -66587-4 0  9996,2 54187  53.2195 350.2317 0001589  88.8636 271.2538 15.08832994 77590,6917.902,95.438,540.866,538.668,0.0
54187.0,STARLINK-5240,PAYLOAD,2024-03-21 11:18:37,15.0883415,0.0001553,53.2197,348.1493,94.7927,265.3243,0.00014266,1.983e-05,0.0,0 STARLINK-5240,1 54187U 22141AG  24081.47127064  .00001983  00000-0  14266-3 0  9994,2 54187  53.2197 348.1493 0001553  94.7927 265.3243 15.08834150 77439,6917.898,95.438,540.838,538.689,0.0
54187.0,STARLINK-5240,PAYLOAD,2024-03-21 22:26:19,15.08848889,0.0001412,53.2176,346.0767,69.4135,290.7009,0.00060606,9.373e-05,0.0,0 STARLINK-5240,1 54187U 22141AG  24081.93494515  .00009373  00000-0  60606-3 0  9993,2 54187  53.2176 346.0767 0001412  69.4135 290.7009 15.08848889 77505,6917.853,95.437,540.695,538.741,0.0
54187.0,STARLINK-5240,PAYLOAD,2024-03-22 03:12:28,15.08864178,0.0001582,53.219,345.1747,109.8377,250.2786,0.001466,0.00023136,0.0,0 STARLINK-5240,1 54187U 22141AG  24082.13366210  .00023136  00000-0  14660-2 0  9997,2 54187  53.2190 345.1747 0001582 109.8377 250.2786 15.08864178 77764,6917.806,95.436,540.766,538.577,0.0
54187.0,STARLINK-5240,PAYLOAD,2024-03-22 20:41:43,15.08836878,0.0001045,53.2195,341.9073,113.4511,246.6591,-2.0283e-05,-6.11e-06,0.0,0 STARLINK-5240,1 54187U 22141AG  24082.86230970 -.00000611  00000-0 -20283-4 0  9995,2 54187  53.2195 341.9073 0001045 113.4511 246.6591 15.08836878 77871,6917.89,95.438,540.478,539.032,0.0
54187.0,STARLINK-5240,PAYLOAD,2024-03-22 22:17:06,15.08836511,9.52e-05,53.2187,341.6125,76.5346,283.5753,-1.666e-06,-3.14e-06,0.0,0 STARLINK-5240,1 54187U 22141AG  24082.92855022 -.00000314  00000-0 -16660-5 0  9998,2 54187  53.2187 341.6125 0000952  76.5346 283.5753 15.08836511 77658,6917.891,95.438,540.415,539.097,0.0
54187.0,STARLINK-5240,PAYLOAD,2024-03-23 03:03:15,15.08844535,0.000144,53.2192,340.7161,123.6135,236.4994,0.00042511,6.485e-05,0.0,0 STARLINK-5240,1 54187U 22141AG  24083.12726790  .00006485  00000-0  42511-3 0  9995,2 54187  53.2192 340.7161 0001440 123.6135 236.4994 15.08844535 77915,6917.867,95.437,540.728,538.735,0.0
54187.0,STARLINK-5240,PAYLOAD,2024-03-23 20:32:30,15.08840185,0.0001474,53.2187,337.4432,116.3882,243.7262,0.00067563,0.00010481,0.0,0 STARLINK-5240,1 54187U 22141AG  24083.85591368  .00010481  00000-0  67563-3 0  9991,2 54187  53.2187 337.4432 0001474 116.3882 243.7262 15.08840185 78027,6917.88,95.438,540.765,538.725,0.0
